[{"OBJECT_NAME":"STARLETTE","OBJECT_ID":"1975-010A","EPOCH":"2026-03-29T04:59:20.965056","MEAN_MOTION":13.82349319,"ECCENTRICITY":0.0205631,"INCLINATION":49.8239,"RA_OF_ASC_NODE":60.2828,"ARG_OF_PERICENTER":158.8236,"MEAN_ANOMALY":202.1322,"EPHEMERIS_TYPE":0,"CLASSIFICATION_TYPE":"U","NORAD_CAT_ID":7646,"ELEMENT_SET_NO":999,"REV_AT_EPOCH":58347,"BSTAR":-9.2672e-7,"MEAN_MOTION_DOT":-1.44e-6,"MEAN_MOTION_DDOT":0},{"OBJECT_NAME":"LAGEOS 1","OBJECT_ID":"1976-039A","EPOCH":"2026-03-28T10:32:44.490048","MEAN_MOTION":6.38664795,"ECCENTRICITY":0.0044667,"INCLINATION":109.8125,"RA_OF_ASC_NODE":151.7023,"ARG_OF_PERICENTER":319.5662,"MEAN_ANOMALY":61.3227,"EPHEMERIS_TYPE":0,"CLASSIFICATION_TYPE":"U","NORAD_CAT_ID":8820,"ELEMENT_SET_NO":999,"REV_AT_EPOCH":90798,"BSTAR":0,"MEAN_MOTION_DOT":-2.0e-8,"MEAN_MOTION_DDOT":0},{"OBJECT_NAME":"AJISAI (EGS)","OBJECT_ID":"1986-061A","EPOCH":"2026-03-29T03:55:27.715008","MEAN_MOTION":12.44515638,"ECCENTRICITY":0.0011333,"INCLINATION":50.0113,"RA_OF_ASC_NODE":33.4644,"ARG_OF_PERICENTER":337.1729,"MEAN_ANOMALY":153.7726,"EPHEMERIS_TYPE":0,"CLASSIFICATION_TYPE":"U","NORAD_CAT_ID":16908,"ELEMENT_SET_NO":999,"REV_AT_EPOCH":47042,"BSTAR":-2.4652e-5,"MEAN_MOTION_DOT":-1.01e-6,"MEAN_MOTION_DDOT":0},{"OBJECT_NAME":"COSMOS 1989 (ETALON 1)","OBJECT_ID":"1989-001C","EPOCH":"2026-03-28T18:18:22.012992","MEAN_MOTION":2.13155958,"ECCENTRICITY":0.00233823,"INCLINATION":64.9002,"RA_OF_ASC_NODE":74.9443,"ARG_OF_PERICENTER":217.6499,"MEAN_ANOMALY":312.9005,"EPHEMERIS_TYPE":0,"CLASSIFICATION_TYPE":"U","NORAD_CAT_ID":19751,"ELEMENT_SET_NO":999,"REV_AT_EPOCH":28965,"BSTAR":0,"MEAN_MOTION_DOT":3.8e-7,"MEAN_MOTION_DDOT":0},{"OBJECT_NAME":"COSMOS 2024 (ETALON 2)","OBJECT_ID":"1989-039C","EPOCH":"2026-03-28T20:08:42.392256","MEAN_MOTION":2.13204526,"ECCENTRICITY":0.00204884,"INCLINATION":64.9828,"RA_OF_ASC_NODE":313.3049,"ARG_OF_PERICENTER":213.1418,"MEAN_ANOMALY":159.8764,"EPHEMERIS_TYPE":0,"CLASSIFICATION_TYPE":"U","NORAD_CAT_ID":20026,"ELEMENT_SET_NO":999,"REV_AT_EPOCH":28679,"BSTAR":0,"MEAN_MOTION_DOT":-2.1e-7,"MEAN_MOTION_DDOT":0},{"OBJECT_NAME":"LAGEOS 2","OBJECT_ID":"1992-070B","EPOCH":"2026-03-20T02:10:27.910848","MEAN_MOTION":6.47293426,"ECCENTRICITY":0.0137714,"INCLINATION":52.6746,"RA_OF_ASC_NODE":322.9737,"ARG_OF_PERICENTER":148.3602,"MEAN_ANOMALY":4.1736,"EPHEMERIS_TYPE":0,"CLASSIFICATION_TYPE":"U","NORAD_CAT_ID":22195,"ELEMENT_SET_NO":999,"REV_AT_EPOCH":78965,"BSTAR":0,"MEAN_MOTION_DOT":-9.0e-8,"MEAN_MOTION_DDOT":0},{"OBJECT_NAME":"STELLA","OBJECT_ID":"1993-061B","EPOCH":"2026-03-29T05:09:55.807200","MEAN_MOTION":14.27468143,"ECCENTRICITY":0.0007431,"INCLINATION":98.78,"RA_OF_ASC_NODE":152.1527,"ARG_OF_PERICENTER":107.2272,"MEAN_ANOMALY":315.2515,"EPHEMERIS_TYPE":0,"CLASSIFICATION_TYPE":"U","NORAD_CAT_ID":22824,"ELEMENT_SET_NO":999,"REV_AT_EPOCH":69336,"BSTAR":6.5338e-6,"MEAN_MOTION_DOT":-2.9e-7,"MEAN_MOTION_DDOT":0},{"OBJECT_NAME":"LARETS","OBJECT_ID":"2003-042F","EPOCH":"2026-03-29T05:03:40.270464","MEAN_MOTION":14.63853474,"ECCENTRICITY":0.0011086,"INCLINATION":98.4055,"RA_OF_ASC_NODE":248.776,"ARG_OF_PERICENTER":287.6408,"MEAN_ANOMALY":72.3583,"EPHEMERIS_TYPE":0,"CLASSIFICATION_TYPE":"U","NORAD_CAT_ID":27944,"ELEMENT_SET_NO":999,"REV_AT_EPOCH":20166,"BSTAR":2.9753e-5,"MEAN_MOTION_DOT":1.05e-6,"MEAN_MOTION_DDOT":0},{"OBJECT_NAME":"LARES","OBJECT_ID":"2012-006A","EPOCH":"2026-03-29T04:34:42.199680","MEAN_MOTION":12.54932262,"ECCENTRICITY":0.0006738,"INCLINATION":69.4897,"RA_OF_ASC_NODE":68.8847,"ARG_OF_PERICENTER":127.5172,"MEAN_ANOMALY":232.6467,"EPHEMERIS_TYPE":0,"CLASSIFICATION_TYPE":"U","NORAD_CAT_ID":38077,"ELEMENT_SET_NO":999,"REV_AT_EPOCH":64703,"BSTAR":6.1777e-5,"MEAN_MOTION_DOT":-2.8e-7,"MEAN_MOTION_DDOT":0},{"OBJECT_NAME":"LARES-2","OBJECT_ID":"2022-080A","EPOCH":"2026-03-21T01:11:34.239840","MEAN_MOTION":6.38964821,"ECCENTRICITY":0.00054116,"INCLINATION":70.1732,"RA_OF_ASC_NODE":335.5553,"ARG_OF_PERICENTER":4.6462,"MEAN_ANOMALY":355.4347,"EPHEMERIS_TYPE":0,"CLASSIFICATION_TYPE":"U","NORAD_CAT_ID":53105,"ELEMENT_SET_NO":999,"REV_AT_EPOCH":8603,"BSTAR":0,"MEAN_MOTION_DOT":-1.5e-7,"MEAN_MOTION_DDOT":0}]
